SHIJIAN-21 (SJ-21)      
1 49330U 21094A   26199.82555583 -.00000356  00000+0  00000+0 0  9996
2 49330   5.1862  60.9875 0051531 168.9265 131.8764  1.00276536  5678
SES-17                  
1 49332U 21095A   26199.75165721 -.00000279  00000+0  00000+0 0  9996
2 49332   0.0243  52.1324 0000938  60.8166  27.0884  1.00269712 18170
SYRACUSE 4A             
1 49333U 21095B   26199.84748138  .00000000  00000+0  00000+0 0  9997
2 49333   0.0207  66.6615 0001544  46.9781 173.6095  1.00268483 18262
QZS-1R (MICHIBIKI-1R)   
1 49336U 21096A   26199.57058939 -.00000316  00000+0  00000+0 0  9995
2 49336  37.5244  79.1164 0755440 272.2947 281.6932  1.00244289 17322
ZHONGXING-1D            
1 49505U 21114A   26199.71941707 -.00000344  00000+0  00000+0 0  9995
2 49505   0.0250 226.0905 0000620  24.7402  74.7947  1.00266792 17136
STPSAT-6                
1 49817U 21118A   26199.58864397 -.00000052  00000+0  00000+0 0  9995
2 49817   0.4000  85.0982 0000901 249.4749  61.9224  1.00270554 16887
EXPRESS AMU-7           
1 50001U 21123A   26199.72236375 -.00000249  00000+0  00000+0 0  9991
2 50001   0.0347 257.6149 0000467  55.0325  28.9232  1.00272534 16853
EXPRESS AMU-3           
1 50002U 21123B   26199.89003069  .00000000  00000+0  00000+0 0  9996
2 50002   0.0133   6.8742 0000305 299.0307  54.0923  1.00270037  7348
TIANLIAN 2-02           
1 50005U 21124A   26199.62683883 -.00000022  00000+0  00000+0 0  9994
2 50005   0.8813  85.6311 0001605 160.4663  86.9415  1.00271274 16930
TURKSAT 5B              
1 50212U 21126A   26199.84415110  .00000140  00000+0  00000+0 0  9996
2 50212   0.0704 339.7836 0002282  15.9058 286.8318  1.00271618 16610
INMARSAT 6-F1           
1 50319U 21128A   26199.80260588  .00000000  00000+0  00000+0 0  9994
2 50319   0.0168  49.0741 0000212  42.4864 217.7371  1.00269532 16578
SHIYAN-12 01 (SY-12 01) 
1 50321U 21129A   26199.80623808  .00000139  00000+0  00000+0 0  9999
2 50321   3.7543  79.4846 0002602 289.2178 252.5659  1.00053356 16813
SHIYAN-12 02 (SY-12 02) 
1 50322U 21129B   26199.82512846 -.00000370  00000+0  00000+0 0  9999
2 50322   3.7534  79.4840 0003171  68.1169 199.1085  1.00475714 16819
TJS-9                   
1 50574U 21135A   26199.72080374 -.00000305  00000+0  00000+0 0  9998
2 50574   0.0548 100.3926 0002147 331.9853 260.8775  1.00271097 16747
GOES 18                 
1 51850U 22021A   26199.59975374  .00000090  00000+0  00000+0 0  9999
2 51850   0.0124  94.1316 0000471  73.8898 207.2831  1.00272027  6906
ZHONGXING-6D            
1 52255U 22038A   26199.82895774  .00000000  00000+0  00000+0 0  9999
2 52255   0.0003 355.2428 0000809 182.6071 182.1505  1.00268466 15736
NILESAT 301             
1 52817U 22061A   26199.79072490 -.00000065  00000+0  00000+0 0  9999
2 52817   0.0461   9.9208 0003595  72.6082 131.7143  1.00270183 15054
CMS-02 (GSAT-24)        
1 52903U 22067A   26199.87470625 -.00000171  00000+0  00000+0 0  9990
2 52903   0.0567 251.0553 0000943 112.7639 330.7273  1.00274232 14927
MEASAT 3D               
1 52904U 22067B   26199.83447544 -.00000248  00000+0  00000+0 0  9996
2 52904   0.0369 324.9624 0000513  67.8413 295.7369  1.00270611 14967
SES-22                  
1 52933U 22071A   26199.73735714  .00000098  00000+0  00000+0 0  9993
2 52933   0.0435 248.8450 0000925 220.0810 314.0409  1.00272743  7831
WFOV (USA 332)          
1 52940U 22073A   26199.71725038 -.00000371  00000+0  00000+0 0  9994
2 52940   3.7899  78.1295 0000992 187.4586  48.4054  1.00275860 14682
TIANLIAN 2-03           
1 53100U 22078A   26199.82589831  .00000065  00000+0  00000+0 0  9998
2 53100   0.7492  77.5351 0000776  16.9950 150.0433  1.00269954 14862
SBIRS GEO-6 (USA 336)   
1 53355U 22092A   26199.36473756 -.00000298  00000+0  00000+0 0  9992
2 53355   3.2059 318.0118 0001798 153.3187  95.1384  1.00270976 14543
EUTELSAT KONNECT VHTS   
1 53765U 22110A   26199.79072490  .00000010  00000+0  00000+0 0  9996
2 53765   0.0570  99.3732 0002814 349.0101 135.5560  1.00270224  7152
ZHONGXING-1E            
1 53813U 22112A   26199.84544649  .00000000  00000+0  00000+0 0  9997
2 53813   0.0160 228.9708 0000655  38.5485  54.9072  1.00270513 14162
SES-20                  
1 53960U 22123A   26199.58308632 -.00000108  00000+0  00000+0 0  9993
2 53960   0.0163  69.7220 0001951  23.5726 309.8883  1.00269396 13843
SES-21                  
1 53961U 22123B   26199.59419865  .00000000  00000+0  00000+0 0  9996
2 53961   0.0363  38.8483 0000963  85.2390 255.3141  1.00270270  7521
GALAXY 33 (G-33)        
1 54026U 22128A   26199.73857050  .00000073  00000+0  00000+0 0  9992
2 54026   0.0185  65.6459 0001891  48.1004 315.6536  1.00270285 14058
GALAXY 34 (G-34)        
1 54027U 22128B   26199.59419865  .00000052  00000+0  00000+0 0  9992
2 54027   0.0115  73.7877 0001693  44.5599 262.9468  1.00274611 14229
ANGOSAT 2               
1 54033U 22131A   26199.83476458  .00000129  00000+0  00000+0 0  9996
2 54033   0.0170 128.1024 0000162 338.5810 153.4567  1.00273801 13793
EUTELSAT HOTBIRD 13F    
1 54048U 22134A   26199.34003206  .00000079  00000+0  00000+0 0  9992
2 54048   0.0545 283.9616 0001875  75.6068  71.9943  1.00272068 13682
LDPE-2                  
1 54219U 22144A   26199.59200674 -.00000001  00000+0  00000+0 0  9994
2 54219   5.6726  63.2811 0002459 107.9559 211.0612  1.00545085 12156
