OBJECT_NAME,OBJECT_ID,EPOCH,MEAN_MOTION,ECCENTRICITY,INCLINATION,RA_OF_ASC_NODE,ARG_OF_PERICENTER,MEAN_ANOMALY,EPHEMERIS_TYPE,CLASSIFICATION_TYPE,NORAD_CAT_ID,ELEMENT_SET_NO,REV_AT_EPOCH,BSTAR,MEAN_MOTION_DOT,MEAN_MOTION_DDOT
SHIJIAN-21 (SJ-21),2021-094A,2026-07-18T19:48:48.023712,1.00276536,.0051531,5.1862,60.9875,168.9265,131.8764,0,U,49330,999,567,0,-.356E-5,0
SES-17,2021-095A,2026-07-18T18:02:23.182944,1.00269712,.0000938,0.0243,52.1324,60.8166,27.0884,0,U,49332,999,1817,0,-.279E-5,0
SYRACUSE 4A,2021-095B,2026-07-18T20:20:22.391232,1.00268483,.0001544,0.0207,66.6615,46.9781,173.6095,0,U,49333,999,1826,0,0,0
QZS-1R (MICHIBIKI-1R),2021-096A,2026-07-18T13:41:38.923296,1.00244289,.075544,37.5244,79.1164,272.2947,281.6932,0,U,49336,999,1732,0,-.316E-5,0
ZHONGXING-1D,2021-114A,2026-07-18T17:15:57.634848,1.00266792,.000062,0.0250,226.0905,24.7402,74.7947,0,U,49505,999,1713,0,-.344E-5,0
STPSAT-6,2021-118A,2026-07-18T14:07:38.839008,1.00270554,.0000901,0.4000,85.0982,249.4749,61.9224,0,U,49817,999,1688,0,-.52E-6,0
EXPRESS AMU-7,2021-123A,2026-07-18T17:20:12.228000,1.00272534,.0000467,0.0347,257.6149,55.0325,28.9232,0,U,50001,999,1685,0,-.249E-5,0
EXPRESS AMU-3,2021-123B,2026-07-18T21:21:38.651616,1.00270037,.0000305,0.0133,6.8742,299.0307,54.0923,0,U,50002,999,734,0,0,0
TIANLIAN 2-02,2021-124A,2026-07-18T15:02:38.874912,1.00271274,.0001605,0.8813,85.6311,160.4663,86.9415,0,U,50005,999,1693,0,-.22E-6,0
TURKSAT 5B,2021-126A,2026-07-18T20:15:34.655040,1.00271618,.0002282,0.0704,339.7836,15.9058,286.8318,0,U,50212,999,1661,0,.14E-5,0
INMARSAT 6-F1,2021-128A,2026-07-18T19:15:45.148032,1.00269532,.0000212,0.0168,49.0741,42.4864,217.7371,0,U,50319,999,1657,0,0,0
SHIYAN-12 01 (SY-12 01),2021-129A,2026-07-18T19:20:58.970112,1.00053356,.0002602,3.7543,79.4846,289.2178,252.5659,0,U,50321,999,1681,0,.139E-5,0
SHIYAN-12 02 (SY-12 02),2021-129B,2026-07-18T19:48:11.098944,1.00475714,.0003171,3.7534,79.4840,68.1169,199.1085,0,U,50322,999,1681,0,-.37E-5,0
TJS-9,2021-135A,2026-07-18T17:17:57.443136,1.00271097,.0002147,0.0548,100.3926,331.9853,260.8775,0,U,50574,999,1674,0,-.305E-5,0
GOES 18,2022-021A,2026-07-18T14:23:38.723136,1.00272027,.0000471,0.0124,94.1316,73.8898,207.2831,0,U,51850,999,690,0,.9E-6,0
ZHONGXING-6D,2022-038A,2026-07-18T19:53:41.948736,1.00268466,.0000809,0.0003,355.2428,182.6071,182.1505,0,U,52255,999,1573,0,0,0
NILESAT 301,2022-061A,2026-07-18T18:58:38.631360,1.00270183,.0003595,0.0461,9.9208,72.6082,131.7143,0,U,52817,999,1505,0,-.65E-6,0
CMS-02 (GSAT-24),2022-067A,2026-07-18T20:59:34.620000,1.00274232,.0000943,0.0567,251.0553,112.7639,330.7273,0,U,52903,999,1492,0,-.171E-5,0
MEASAT 3D,2022-067B,2026-07-18T20:01:38.678016,1.00270611,.0000513,0.0369,324.9624,67.8413,295.7369,0,U,52904,999,1496,0,-.248E-5,0
SES-22,2022-071A,2026-07-18T17:41:47.656896,1.00272743,.0000925,0.0435,248.8450,220.0810,314.0409,0,U,52933,999,783,0,.98E-6,0
WFOV (USA 332),2022-073A,2026-07-18T17:12:50.432832,1.00275860,.0000992,3.7899,78.1295,187.4586,48.4054,0,U,52940,999,1468,0,-.371E-5,0
TIANLIAN 2-03,2022-078A,2026-07-18T19:49:17.613984,1.00269954,.0000776,0.7492,77.5351,16.9950,150.0433,0,U,53100,999,1486,0,.65E-6,0
SBIRS GEO-6 (USA 336),2022-092A,2026-07-18T08:45:13.325184,1.00270976,.00017988,3.2059,318.0118,153.3187,95.1384,0,U,53355,999,1454,0,-.298E-5,0
EUTELSAT KONNECT VHTS,2022-110A,2026-07-18T18:58:38.631360,1.00270224,.0002814,0.0570,99.3732,349.0101,135.5560,0,U,53765,999,715,0,.1E-6,0
ZHONGXING-1E,2022-112A,2026-07-18T20:17:26.576736,1.00270513,.0000655,0.0160,228.9708,38.5485,54.9072,0,U,53813,999,1416,0,0,0
SES-20,2022-123A,2026-07-18T13:59:38.658048,1.00269396,.0001951,0.0163,69.7220,23.5726,309.8883,0,U,53960,999,1384,0,-.108E-5,0
SES-21,2022-123B,2026-07-18T14:15:38.763360,1.00270270,.0000963,0.0363,38.8483,85.2390,255.3141,0,U,53961,999,752,0,0,0
GALAXY 33 (G-33),2022-128A,2026-07-18T17:43:32.491200,1.00270285,.0001891,0.0185,65.6459,48.1004,315.6536,0,U,54026,999,1405,0,.73E-6,0
GALAXY 34 (G-34),2022-128B,2026-07-18T14:15:38.763360,1.00274611,.0001693,0.0115,73.7877,44.5599,262.9468,0,U,54027,999,1422,0,.52E-6,0
ANGOSAT 2,2022-131A,2026-07-18T20:02:03.659712,1.00273801,.0000162,0.0170,128.1024,338.5810,153.4567,0,U,54033,999,1379,0,.129E-5,0
EUTELSAT HOTBIRD 13F,2022-134A,2026-07-18T08:09:38.769984,1.00272068,.00018752,0.0545,283.9616,75.6068,71.9943,0,U,54048,999,1368,0,.79E-6,0
LDPE-2,2022-144A,2026-07-18T14:12:29.382336,1.00545085,.0002459,5.6726,63.2811,107.9559,211.0612,0,U,54219,999,1215,0,-.1E-7,0
